{
  "type": "FeatureCollection",
  "features": [
    {
      "type": "Feature",
      "properties": {
        "norad_id": 64903,
        "name": "CO3D 1",
        "group": "resource",
        "lat": -74.81575793374068,
        "lon": -135.3201989040704,
        "alt_km": 513.1644368538646,
        "timestamp": "2025-12-23T07:45:09.054676+00:00",
        "meta_object_name": "CO3D 1",
        "meta_object_id": "2025-156E",
        "meta_epoch": "2025-12-22T22:43:40.696320",
        "meta_mean_motion": 15.20203625,
        "meta_eccentricity": 8.93e-05,
        "meta_inclination": 97.4339,
        "meta_ra_of_asc_node": 73.0665,
        "meta_arg_of_pericenter": 76.0215,
        "meta_mean_anomaly": 284.112,
        "meta_ephemeris_type": 0,
        "meta_classification_type": "U",
        "meta_norad_cat_id": 64903,
        "meta_element_set_no": 999,
        "meta_rev_at_epoch": 2275,
        "meta_bstar": 0.0003017122,
        "meta_mean_motion_dot": 6.47e-05,
        "meta_mean_motion_ddot": 0,
        "tle_line1": "1 64903U 25156E   25356.94699880  .00006470  00000+0  30171-3 0  9996",
        "tle_line2": "2 64903  97.4339  73.0665 0000893  76.0215 284.1120 15.20203625 22757"
      },
      "geometry": {
        "type": "Point",
        "coordinates": [
          -135.3201989040704,
          -74.81575793374068
        ]
      }
    },
    {
      "type": "Feature",
      "properties": {
        "norad_id": 66514,
        "name": "SENTINEL-6B",
        "group": "resource",
        "lat": -55.262416573200156,
        "lon": 100.56712233582928,
        "alt_km": 1338.4131512322165,
        "timestamp": "2025-12-23T07:45:09.054686+00:00",
        "meta_object_name": "SENTINEL-6B",
        "meta_object_id": "2025-264A",
        "meta_epoch": "2025-12-22T18:58:09.372864",
        "meta_mean_motion": 12.8092954,
        "meta_eccentricity": 0.00078832,
        "meta_inclination": 66.0396,
        "meta_ra_of_asc_node": 141.5585,
        "meta_arg_of_pericenter": 269.9604,
        "meta_mean_anomaly": 90.0508,
        "meta_ephemeris_type": 0,
        "meta_classification_type": "U",
        "meta_norad_cat_id": 66514,
        "meta_element_set_no": 999,
        "meta_rev_at_epoch": 457,
        "meta_bstar": -1.4678269e-05,
        "meta_mean_motion_dot": -6.4e-07,
        "meta_mean_motion_ddot": 0,
        "tle_line1": "1 66514U 25264A   25356.79038626 -.00000064  00000+0 -14678-4 0  9994",
        "tle_line2": "2 66514  66.0396 141.5585 0007883 269.9604  90.0508 12.80929540  4573"
      },
      "geometry": {
        "type": "Point",
        "coordinates": [
          100.56712233582928,
          -55.262416573200156
        ]
      }
    }
  ]
}